ID	25969	SchoolCode	B04724	SchoolName	WIDENER_UNIV_SCHOOL_OF_LAW_-_DE	Address	4601_CONCORD_PIKE/PO_BOX_7474	City	WILMINGTON	StateCode	DE	ZipCode	19803	.
ID	25970	SchoolCode	B06171	SchoolName	CENTER_FOR_ADVANCED_STUDIES_OF_PUER	Address	BOX_S-4467	City	SAN_JUAN	StateCode	PR	ZipCode	00902	.
ID	25971	SchoolCode	B06511	SchoolName	PENTECOSTAL_THEOLOGICAL_SEMINARY	Address	PO_BOX_3330	City	CLEVELAND	StateCode	TN	ZipCode	37320	.
ID	25972	SchoolCode	B07022	SchoolName	THE_CHICAGO_SCHOOL_OF_PROF_PSYCHOLOGY	Address	325_NORTH_WELLS_STREET	City	CHICAGO	StateCode	IL	ZipCode	60610	.
ID	25973	SchoolCode	B07624	SchoolName	NATIONAL_COLLEGE_OF_NATURAL_MEDICINE	Address	049_SW_PORTER	City	PORTLAND	StateCode	OR	ZipCode	97201	.
ID	25974	SchoolCode	B07625	SchoolName	OREGON_COL_OF_ORIENTAL_MEDICINE	Address	10525_SE_CHERRY_BLOSSOM_DR	City	PORTLAND	StateCode	OR	ZipCode	97216	.
ID	25975	SchoolCode	B08041	SchoolName	ALFRED_ADLER_GRADUATE_SCHOOL	Address	1001_WEST_HIGHWAY_7__SUITE_344	City	HOPKINS	StateCode	MN	ZipCode	55305	.
ID	25976	SchoolCode	B08083	SchoolName	UNIV_OF_THE_DIST_OF_COLU_-SCHOOL_OF_LAW	Address	4200_CONNECTICUT_AVENUE_NW	City	WASHINGTON	StateCode	DC	ZipCode	20008	.
ID	25977	SchoolCode	B42154	SchoolName	GRACE_SCHOOL_OF_THEOLOGY	Address	3705_COLLEGE_PARK_DR	City	CONROE	StateCode	TX	ZipCode	77384	.
ID	25978	SchoolCode	E00014	SchoolName	AMRCN_REPERTORY_THTR_INST_ADV_THTR	Address	64_BRATTLE_STREET	City	CAMBRIDGE	StateCode	MA	ZipCode	02138	.
ID	25979	SchoolCode	E00058	SchoolName	BROWN_UNIVERSITY_-_GRADUATE_SCHOOL	Address	8_FONES_ALLEY	City	PROVIDENCE	StateCode	RI	ZipCode	02912	.
ID	25980	SchoolCode	E00059	SchoolName	BROWN_MEDICAL_SCHOOL	Address	97_WATERMAN_STREET__BOX_G-A212	City	PROVIDENCE	StateCode	RI	ZipCode	02912	.
ID	25981	SchoolCode	E00073	SchoolName	CARNEGIE_MELLON_UNIV-_THE_HEINZ_COLLEGE	Address	5000_FORBES_AVENUE	City	PITTSBURGH	StateCode	PA	ZipCode	15213	.
ID	25982	SchoolCode	E00074	SchoolName	CARNEGIE_MELLON-_TEPPER_SCHOOL_OF_BUSINE	Address	5000_FORBES_AVENUE	City	PITTSBURGH	StateCode	PA	ZipCode	15213	.
ID	25983	SchoolCode	E00077	SchoolName	CASE_WESTERN_RESERVE_UNIV_-_UG	Address	10900_EUCLID_AVENUE	City	CLEVELAND	StateCode	OH	ZipCode	44106	.
ID	25984	SchoolCode	E00078	SchoolName	CASE_WESTERN_RESERVE_UNIV_-_DENTAL	Address	10900_EUCLID_AVE	City	CLEVELAND	StateCode	OH	ZipCode	44106	.
ID	25985	SchoolCode	E00079	SchoolName	CASE_WESTERN_RESERVE_UNIV_-_MED	Address	10900_EUCLID_AVE_T-303	City	CLEVELAND	StateCode	OH	ZipCode	44106	.
ID	25986	SchoolCode	E00080	SchoolName	CASE_WESTERN_RESERVE_UNIV_-_WSOM	Address	10900_EUCLID_AVE	City	CLEVELAND	StateCode	OH	ZipCode	44106	.
ID	25987	SchoolCode	E00081	SchoolName	CASE_WESTERN_RESERVE_UNIV_-_NURS_UG	Address	10900_EUCLID_AVE	City	CLEVELAND	StateCode	OH	ZipCode	44106	.
ID	25988	SchoolCode	E00082	SchoolName	CASE_WESTERN_RESERVE_UNIV_-_LAW	Address	10900_EUCLID_AVE	City	CLEVELAND	StateCode	OH	ZipCode	44106	.
ID	25989	SchoolCode	E00083	SchoolName	CASE_WESTERN_RESERVE_UNIV_-NURS_GRD	Address	10900_EUCLID_AVE	City	CLEVELAND	StateCode	OH	ZipCode	44106	.
ID	25990	SchoolCode	E00084	SchoolName	CASE_WESTERN_RESERVE_UNIV_-_MSASS	Address	10900_EUCLID_AVE	City	CLEVELAND	StateCode	OH	ZipCode	44106	.
ID	25991	SchoolCode	E00131	SchoolName	CATHOLIC_UNIV_AMERICA,_LAW_SCHOOL	Address	OFC_FNCL_AID__CARDINAL_STATION	City	WASHINGTON	StateCode	DC	ZipCode	20064	.
ID	25992	SchoolCode	E00170	SchoolName	EARLHAM_SCHOOL_OF_RELIGION	Address	228_COLLEGE_AVENUE	City	RICHMOND	StateCode	IN	ZipCode	47374	.
ID	25993	SchoolCode	E00171	SchoolName	EAST_TENNESSEE_STATE_UNIV_-_MEDICINE	Address	VA_CAMPUS_MAPLE_AVENUE	City	JOHNSON_CITY	StateCode	TN	ZipCode	37614	.
ID	25994	SchoolCode	E00177	SchoolName	ERSKINE_THEOLOGICAL_SEMINARY	Address	PO_BOX_668	City	DUE_WEST	StateCode	SC	ZipCode	29639	.
ID	25995	SchoolCode	E00196	SchoolName	GEORGE_WASHINGTON_UNIV_LAW_SCHL	Address	2000_H_STREET_NW	City	WASHINGTON	StateCode	DC	ZipCode	20052	.
ID	25996	SchoolCode	E00197	SchoolName	GEORGE_WASHINGTON_UNIV_SCH_MED	Address	2300_I_ST_NW	City	WASHINGTON	StateCode	DC	ZipCode	20052	.
ID	25997	SchoolCode	E00209	SchoolName	HARVARD_EXTENSION_SCHOOL	Address	51_BRATTLE_STREET	City	CAMBRIDGE	StateCode	MA	ZipCode	02138	.
ID	25998	SchoolCode	E00210	SchoolName	HARVARD_DIVINITY_SCHOOL	Address	14_DIVINITY_AVE	City	CAMBRIDGE	StateCode	MA	ZipCode	02138	.
ID	25999	SchoolCode	E00212	SchoolName	HARVARD_UNIV_GRAD_SCH_DESIGN	Address	48_QUINCY_STR	City	CAMBRIDGE	StateCode	MA	ZipCode	02138	.
ID	26000	SchoolCode	E00213	SchoolName	HARVARD_UNIV_GRAD_SCH_ED	Address	13_APPIAN_WAY	City	CAMBRIDGE	StateCode	MA	ZipCode	02138	.
ID	26001	SchoolCode	E00214	SchoolName	HARVARD_UNIV_SCH_PUBLIC_HEALTH	Address	708_HUNTINGTON_AVE	City	BOSTON	StateCode	MA	ZipCode	02115	.
ID	26002	SchoolCode	E00215	SchoolName	HARVARD_KENNEDY_SCHOOL	Address	124_MT_AUBURN_ST	City	CAMBRIDGE	StateCode	MA	ZipCode	02138	.
ID	26003	SchoolCode	E00233	SchoolName	JOHNS_HOPKINS_UNIV_PEABODY_CONSERV	Address	1_MT._VERNON_PLACE	City	BALTIMORE	StateCode	MD	ZipCode	21202	.
ID	26004	SchoolCode	E00234	SchoolName	JOHNS_HOPKINS_BLOOMBERG_SCH_OF_PH	Address	615_N._WOLFE__STREET	City	BALTIMORE	StateCode	MD	ZipCode	21205	.
ID	26005	SchoolCode	E00235	SchoolName	JOHNS_HOPKINS_UNIV_SCH_OF_MEDICINE	Address	733_N._BROADWAY_-_SUITE_137	City	BALTIMORE	StateCode	MD	ZipCode	21205	.
ID	26006	SchoolCode	E00254	SchoolName	LMU__-_LOYOLA_LAW_SCHOOL	Address	919_SOUTH_ALBANY_STREET	City	LOS_ANGELES	StateCode	CA	ZipCode	90015	.
ID	26007	SchoolCode	E00266	SchoolName	MAYO_GRAD_SCHOOL	Address	STUDENT_FINANCIAL_AID_OFFICE_B	City	ROCHESTER	StateCode	MN	ZipCode	55901	.
ID	26008	SchoolCode	E00277	SchoolName	MORAVIAN_THEOLOGICAL_SEMINARY	Address	1200_MAIN_STREET	City	BETHLEHEM	StateCode	PA	ZipCode	18018	.
ID	26009	SchoolCode	E00306	SchoolName	OHIO_UNIV_COLL_OF_OSTEOPATHIC_MED	Address	014_GROSVENOR_HALL	City	ATHENS	StateCode	OH	ZipCode	45701	.
ID	26010	SchoolCode	E00341	SchoolName	STANFORD_UNIVERSITY_-_STANFORD_LAW_SCHOO	Address	559_NATHAN_ABBOTT_WAY	City	STANFORD	StateCode	CA	ZipCode	94305	.
ID	26011	SchoolCode	E00342	SchoolName	STETSON_UNIVERSITY_-_COLLEGE_OF_LAW	Address	1401_61ST_STREET_SOUTH	City	SAINT_PETERSBURG	StateCode	FL	ZipCode	33707	.
ID	26012	SchoolCode	E00362	SchoolName	TUFTS_UNIVERSITY_-_CUMMINGS_SCHOOL_OF_VE	Address	200_WESTBORO_ROAD	City	NORTH_GRAFTON	StateCode	MA	ZipCode	01536	.
ID	26013	SchoolCode	E00374	SchoolName	UNIV_OF_CALIFORNIA_LOS_ANG_SCH_MED	Address	FIN_AID_OFFICE__12-109_CHS	City	LOS_ANGELES	StateCode	CA	ZipCode	90095	.
ID	26014	SchoolCode	E00375	SchoolName	UNIV_OF_CALIFORNIA_LOS_ANG_DENTAL	Address	A3042_DENTAL_BLDG	City	LOS_ANGELES	StateCode	CA	ZipCode	90095	.
ID	26015	SchoolCode	E00377	SchoolName	UNIVERSITY_OF_CHICAGO_GRADUATE	Address	970_EAST_58TH_STREET,_RM_411	City	CHICAGO	StateCode	IL	ZipCode	60637	.
ID	26016	SchoolCode	E00385	SchoolName	UNIVERSITY_OF_CINCINNATI_-_MEDICINE	Address	231_BETHESDA_AVENUE	City	CINCINNATI	StateCode	OH	ZipCode	45267	.
ID	26017	SchoolCode	E00387	SchoolName	UNIV_OF_CONNECTICUT_SCH_LAW	Address	55_ELIZABETH_ST	City	HARTFORD	StateCode	CT	ZipCode	06105	.
ID	26018	SchoolCode	E00392	SchoolName	UNIV_OF_DETROIT_MERCY_-_LAW_SCHOOL	Address	651_E._JEFFERSON	City	DETROIT	StateCode	MI	ZipCode	48226	.
ID	26019	SchoolCode	E00398	SchoolName	UNIVERSITY_OF_MICHIGAN-MEDICAL_SCH	Address	1301_CATHERINE_C5124_MED_SCI-I	City	ANN_ARBOR	StateCode	MI	ZipCode	48109	.
ID	26020	SchoolCode	E00428	SchoolName	VILLANOVA_UNIV_SCH_OF_LAW	Address	299_N._SPRING_MILL_RD_GAREY_HL	City	VILLANOVA	StateCode	PA	ZipCode	19085	.
ID	26021	SchoolCode	E00429	SchoolName	WAKE_FOREST_UNIV_-_GRAD_A&S/DIVINITY	Address	PO_BOX_7246	City	WINSTON-SALEM	StateCode	NC	ZipCode	27109	.
ID	26022	SchoolCode	E00435	SchoolName	WAYNE_STATE_UNIVERSITY_-_LAW_SCHOOL	Address	468_W._FERRY,_ROOM_191	City	DETROIT	StateCode	MI	ZipCode	48202	.
ID	26023	SchoolCode	E00461	SchoolName	BAKER_COLLEGE_OF_CADILLAC	Address	9600_E_13TH_STREET	City	CADILLAC	StateCode	MI	ZipCode	49601	.
ID	26024	SchoolCode	E00462	SchoolName	BAKER_COLLEGE_OF_CLINTON_TOWNSHIP	Address	34950_LITTLE_MACK	City	CLINTON_TOWNSHIP	StateCode	MI	ZipCode	48035	.
ID	26025	SchoolCode	E00463	SchoolName	BAKER_COLLEGE_OF_MUSKEGON	Address	1903_MARQUETTE	City	MUSKEGON	StateCode	MI	ZipCode	49442	.
ID	26026	SchoolCode	E00464	SchoolName	BAKER_COLLEGE_OF_OWOSSO	Address	1020_S._WASHINGTON	City	OWOSSO	StateCode	MI	ZipCode	48867	.
ID	26027	SchoolCode	E00465	SchoolName	BAKER_COLLEGE_OF_PORT_HURON	Address	3403_LAPEER_ROAD	City	PORT_HURON	StateCode	MI	ZipCode	48060	.
ID	26028	SchoolCode	E00466	SchoolName	BAKER_COLLEGE_OF_AUBURN_HILLS	Address	1500_UNIVERSITY_DRIVE	City	AUBURN_HILLS	StateCode	MI	ZipCode	48326	.
ID	26029	SchoolCode	E00468	SchoolName	HARVARD_UNIVERSITY-HARVARD_COLLEGE	Address	86_BRATTLE_STREET	City	CAMBRIDGE	StateCode	MA	ZipCode	02138	.
ID	26030	SchoolCode	E00470	SchoolName	HARVARD_UNIV_GRAD_S_OF_ARTS_&_SCIEN	Address	1350_MASSACHUSETTS_AVE	City	CAMBRIDGE	StateCode	MA	ZipCode	02138	.
ID	26031	SchoolCode	E00471	SchoolName	HARVARD_LAW_SCHOOL	Address	1563_MASS_AVE	City	CAMBRIDGE	StateCode	MA	ZipCode	02138	.
ID	26032	SchoolCode	E00472	SchoolName	HARVARD_UNIV_MEDICAL_SCHOOL	Address	25_SHATTUCK_ST	City	BOSTON	StateCode	MA	ZipCode	02115	.
ID	26033	SchoolCode	E00473	SchoolName	JOHNS_HOPKINS_UNIV_SCH_ARTS/SCI/ENG	Address	3400_N._CHARLES_ST	City	BALTIMORE	StateCode	MD	ZipCode	21218	.
ID	26034	SchoolCode	E00474	SchoolName	JOHNS_HOPKINS_UNIV_SCH_ADV_INTL_STU	Address	1740_MASSACHUSETTS_AVE._NW	City	WASHINGTON	StateCode	DC	ZipCode	20036	.
ID	26035	SchoolCode	E00475	SchoolName	JOHNS_HOPKINS_UNIV_SCH_OF_BUS/ED	Address	6740_ALEXANDER_BELL_DR.	City	COLUMBIA	StateCode	MD	ZipCode	21046	.
ID	26036	SchoolCode	E00476	SchoolName	JOHNS_HOPKINS_UNIV_SCH_OF_NURSING	Address	525_N_WOLFE_STREET_-_ROOM_127	City	BALTIMORE	StateCode	MD	ZipCode	21205	.
ID	26037	SchoolCode	E00479	SchoolName	MISSISSIPPI_COLLEGE_-_SCHOOL_OF_LAW	Address	151_EAST_GRIFFITH	City	JACKSON	StateCode	MS	ZipCode	39201	.
ID	26038	SchoolCode	E00480	SchoolName	WHITTIER_COLLEGE_-_COLLEGE_OF_LAW	Address	3333_HARBOR_BOULEVARD	City	COSTA_MESA	StateCode	CA	ZipCode	92626	.
ID	26039	SchoolCode	E00505	SchoolName	ST_JOSEPH'S_COLLEGE-SUFFOLK_CAMPUS	Address	155_ROE_BLVD	City	PATCHOGUE	StateCode	NY	ZipCode	11772	.
ID	26040	SchoolCode	E00506	SchoolName	UNIVERSITY_OF_MICHIGAN_LAW_SCHOOL	Address	310_HUTCHINS_HALL	City	ANN_ARBOR	StateCode	MI	ZipCode	48109	.
ID	26041	SchoolCode	E00507	SchoolName	HARVARD_BUSINESS_SCHOOL	Address	SPANGLER_CTR	City	BOSTON	StateCode	MA	ZipCode	02163	.
ID	26042	SchoolCode	E00508	SchoolName	HARVARD_SCH_OF_DENTAL_MEDICINE	Address	188_LONGWOOD_AVE	City	BOSTON	StateCode	MA	ZipCode	02115	.
ID	26043	SchoolCode	E00512	SchoolName	UNIV_OF_CHICAGO,_BOOTH_SCH_OF_BUS	Address	5807_S._WOODLAWN	City	CHICAGO	StateCode	IL	ZipCode	60637	.
ID	26044	SchoolCode	E00514	SchoolName	WAKE_FOREST_UNIV_-_SCH_OF_LAW	Address	PO_BOX_7206	City	WINSTON-SALEM	StateCode	NC	ZipCode	27109	.
ID	26045	SchoolCode	E00515	SchoolName	WAKE_FOREST_GRAD_SCHOOLS_OF_BUSINESS	Address	WORRELL_PROFESSIONAL_CENTER	City	WINSTON-SALEM	StateCode	NC	ZipCode	27109	.
ID	26046	SchoolCode	E00516	SchoolName	UNIVERSITY_OF_PITTSBURGH_-_SCHOOL_OF_MED	Address	M-219_SCAIFE_HALL	City	PITTSBURGH	StateCode	PA	ZipCode	15261	.
ID	26047	SchoolCode	E00518	SchoolName	GEORGETOWN_UNIV,_SCH_OF_MEDICINE	Address	3900_RESERVIOR_RD__NW	City	WASHINGTON	StateCode	DC	ZipCode	20007	.
ID	26048	SchoolCode	E00519	SchoolName	TUFTS_UNIV_SCH_OF_DENTAL_MEDICINE	Address	1_KNEELAND_STR	City	BOSTON	StateCode	MA	ZipCode	02111	.
ID	26049	SchoolCode	E00520	SchoolName	TUFTS_UNIV_SCHOOL_OF_MEDICINE	Address	136_HARRISON_AVE	City	BOSTON	StateCode	MA	ZipCode	02111	.
ID	26050	SchoolCode	E00522	SchoolName	SMITH_COLLEGE,_SCH_FOR_SOCIAL_WORK	Address	LILLY_HALL	City	NORTHAMPTON	StateCode	MA	ZipCode	01063	.
ID	26051	SchoolCode	E00524	SchoolName	WAKE_FOREST_UNIV_-_SCH_OF_MEDICINE	Address	MEDICAL_CENTER_BLVD	City	WINSTON-SALEM	StateCode	NC	ZipCode	27157	.
ID	26052	SchoolCode	E00531	SchoolName	UNIV_OF_CT_-_SCH_OF_SOCIAL_WORK	Address	1798_ASYLUM_AVENUE	City	WEST_HARTFORD	StateCode	CT	ZipCode	06117	.
ID	26053	SchoolCode	E00532	SchoolName	UNIV_OF_MIAMI_SCHOOL_OF_LAW	Address	211_OLD_LAW_PO_BOX_24-8087	City	CORAL_GABLES	StateCode	FL	ZipCode	33124	.
ID	26054	SchoolCode	E00533	SchoolName	UNIV_OF_MIAMI-SCH_OF_MEDICINE	Address	1600_NW_10TH_AVE	City	MIAMI	StateCode	FL	ZipCode	33136	.
ID	26055	SchoolCode	E00540	SchoolName	SOUTHWESTERN_OK_STATE_UNIV_AT_SAYRE	Address	409_EAST_MISSISSIPPI_AVENUE	City	SAYRE	StateCode	OK	ZipCode	73662	.
ID	26056	SchoolCode	E00546	SchoolName	NY_INSTITUTE_OF_TECHNOLOGY-OSTEOPATHIC_M	Address	NORTHERN_BOULEVARD	City	OLD_WESTBURY	StateCode	NY	ZipCode	11568	.
ID	26057	SchoolCode	E00554	SchoolName	ANTIOCH_UNIV/LOS_ANGELES	Address	400_CORPORATE_POINTE	City	CULVER_CITY	StateCode	CA	ZipCode	90230	.
ID	26058	SchoolCode	E00555	SchoolName	ANTIOCH_UNIV/SEATTLE	Address	2626_SIXTH_AVENUE	City	SEATTLE	StateCode	WA	ZipCode	98121	.
ID	26059	SchoolCode	E00556	SchoolName	ANTIOCH__UNIV/SANTA_BARBARA	Address	801_GARDEN_STR__SUITE_101	City	SANTA_BARBARA	StateCode	CA	ZipCode	93101	.
ID	26060	SchoolCode	E00557	SchoolName	ANTIOCH_UNIVERSITY	Address	40_AVON_STREET	City	KEENE	StateCode	NH	ZipCode	03431	.
ID	26061	SchoolCode	E00562	SchoolName	MIDDLESEX_COMMUNITY_COLLEGE,_LOWELL	Address	33_KEARNEY_SQUARE	City	LOWELL	StateCode	MA	ZipCode	01852	.
ID	26062	SchoolCode	E00567	SchoolName	MAYO_SCHOOL_OF_HEALTH-RELATED_SCIEN	Address	200_FIRST_ST__SW	City	ROCHESTER	StateCode	MN	ZipCode	55905	.
ID	26063	SchoolCode	E00568	SchoolName	UNIV_OF_SOUTH_FLORIDA-_MEDICINE	Address	12901_BRUCE_B_DOWNS_BLVD_MDC_4	City	TAMPA	StateCode	FL	ZipCode	33612	.
ID	26064	SchoolCode	E00570	SchoolName	WAYNE_STATE_UNIV_SCH_OF_MEDICINE	Address	1374_SCOTT_HALL	City	DETROIT	StateCode	MI	ZipCode	48201	.
ID	26065	SchoolCode	E00573	SchoolName	UNIV_OF_SOUTH_FLORIDA-SARASOTA	Address	8350_N_TAMIAMI_TRAIL	City	SARASOTA	StateCode	FL	ZipCode	34243	.
ID	26066	SchoolCode	E00584	SchoolName	FLORIDA_ATLANTIC_UNIVERSITY/DAVIE	Address	2912_COLLEGE_AVENUE	City	DAVIE	StateCode	FL	ZipCode	33314	.
ID	26067	SchoolCode	E00587	SchoolName	UNIV_OF_KY-COLLEGE_OF_DENTISTRY	Address	D155_CHANDLER_MEDICAL_CENTER	City	LEXINGTON	StateCode	KY	ZipCode	40536	.
